{
  "norad_id": 68582,
  "name": "KUIPER-00236",
  "history": [
    {
      "epoch": "2026-04-09T12:00:03.990816Z",
      "apogee_km": 453.38337485152624,
      "perigee_km": 449.56015986356033,
      "latitude_deg": 4.863446322437066e-05,
      "longitude_deg": 131.29815808308663,
      "height_km": 452.3302536829941,
      "semi_major_axis_km": 6829.608767357543,
      "eccentricity": 0.0002799,
      "inclination_deg": 51.8751,
      "raan_deg": 149.0621,
      "arg_perigee_deg": 92.9673,
      "mean_anomaly_deg": 267.1635,
      "mean_motion_rev_day": 15.38186598
    }
  ]
}